{"fetched_at":"2026-07-14T17:40:46.625Z","source":"https://celestrak.org/NORAD/elements/gp.php?NAME=HAWK&FORMAT=JSON","constellation":"hawkeye-360","records":[{"OBJECT_NAME":"HAWK-7B","OBJECT_ID":"2023-054R","EPOCH":"2026-07-14T03:58:13.859616","CLASSIFICATION_TYPE":"U","MEAN_MOTION":15.2762445,"ECCENTRICITY":0.0001442,"INCLINATION":97.2694,"RA_OF_ASC_NODE":80.0906,"ARG_OF_PERICENTER":18.5615,"MEAN_ANOMALY":341.5677,"EPHEMERIS_TYPE":0,"NORAD_CAT_ID":56193,"ELEMENT_SET_NO":999,"REV_AT_EPOCH":18114,"BSTAR":0.00012141,"MEAN_MOTION_DOT":0.00003206,"MEAN_MOTION_DDOT":0},{"OBJECT_NAME":"HAWK-7C","OBJECT_ID":"2023-054Y","EPOCH":"2026-07-14T03:58:03.370656","CLASSIFICATION_TYPE":"U","MEAN_MOTION":15.27627386,"ECCENTRICITY":0.0000983,"INCLINATION":97.2673,"RA_OF_ASC_NODE":80.8513,"ARG_OF_PERICENTER":1.3784,"MEAN_ANOMALY":358.7458,"EPHEMERIS_TYPE":0,"NORAD_CAT_ID":56200,"ELEMENT_SET_NO":999,"REV_AT_EPOCH":18114,"BSTAR":0.0001219,"MEAN_MOTION_DOT":0.0000322,"MEAN_MOTION_DDOT":0},{"OBJECT_NAME":"HAWK-8A","OBJECT_ID":"2024-066B","EPOCH":"2026-07-13T23:10:21.599328","CLASSIFICATION_TYPE":"U","MEAN_MOTION":14.99284113,"ECCENTRICITY":0.0002912,"INCLINATION":45.5951,"RA_OF_ASC_NODE":138.1753,"ARG_OF_PERICENTER":214.4768,"MEAN_ANOMALY":145.5924,"EPHEMERIS_TYPE":0,"NORAD_CAT_ID":59443,"ELEMENT_SET_NO":999,"REV_AT_EPOCH":12385,"BSTAR":0.000065389,"MEAN_MOTION_DOT":0.00000579,"MEAN_MOTION_DDOT":0},{"OBJECT_NAME":"HAWK-8B","OBJECT_ID":"2024-066D","EPOCH":"2026-07-13T21:35:05.403840","CLASSIFICATION_TYPE":"U","MEAN_MOTION":14.99279756,"ECCENTRICITY":0.0003045,"INCLINATION":45.6177,"RA_OF_ASC_NODE":140.495,"ARG_OF_PERICENTER":217.9498,"MEAN_ANOMALY":142.117,"EPHEMERIS_TYPE":0,"NORAD_CAT_ID":59445,"ELEMENT_SET_NO":999,"REV_AT_EPOCH":12383,"BSTAR":0.000043098,"MEAN_MOTION_DOT":0.00000303,"MEAN_MOTION_DDOT":0},{"OBJECT_NAME":"HAWK-9A","OBJECT_ID":"2024-066E","EPOCH":"2026-07-14T04:31:41.418048","CLASSIFICATION_TYPE":"U","MEAN_MOTION":14.99213697,"ECCENTRICITY":0.0002694,"INCLINATION":45.6093,"RA_OF_ASC_NODE":137.6636,"ARG_OF_PERICENTER":201.6392,"MEAN_ANOMALY":158.4376,"EPHEMERIS_TYPE":0,"NORAD_CAT_ID":59446,"ELEMENT_SET_NO":999,"REV_AT_EPOCH":12388,"BSTAR":0.000074272,"MEAN_MOTION_DOT":0.00000687,"MEAN_MOTION_DDOT":0},{"OBJECT_NAME":"HAWK-9C","OBJECT_ID":"2024-066G","EPOCH":"2026-07-14T04:32:04.252704","CLASSIFICATION_TYPE":"U","MEAN_MOTION":14.99212968,"ECCENTRICITY":0.0002764,"INCLINATION":45.6065,"RA_OF_ASC_NODE":136.7597,"ARG_OF_PERICENTER":185.0564,"MEAN_ANOMALY":175.029,"EPHEMERIS_TYPE":0,"NORAD_CAT_ID":59448,"ELEMENT_SET_NO":999,"REV_AT_EPOCH":12388,"BSTAR":0.000079569,"MEAN_MOTION_DOT":0.00000753,"MEAN_MOTION_DDOT":0},{"OBJECT_NAME":"HAWK-8C","OBJECT_ID":"2024-066H","EPOCH":"2026-07-13T21:34:19.077024","CLASSIFICATION_TYPE":"U","MEAN_MOTION":14.99287664,"ECCENTRICITY":0.0002723,"INCLINATION":45.6072,"RA_OF_ASC_NODE":139.5167,"ARG_OF_PERICENTER":225.3215,"MEAN_ANOMALY":134.7444,"EPHEMERIS_TYPE":0,"NORAD_CAT_ID":59449,"ELEMENT_SET_NO":999,"REV_AT_EPOCH":12383,"BSTAR":0.00006626,"MEAN_MOTION_DOT":0.0000059,"MEAN_MOTION_DDOT":0},{"OBJECT_NAME":"HAWK-9B","OBJECT_ID":"2024-066J","EPOCH":"2026-07-13T06:08:44.111040","CLASSIFICATION_TYPE":"U","MEAN_MOTION":14.99213014,"ECCENTRICITY":0.0002614,"INCLINATION":45.6132,"RA_OF_ASC_NODE":143.4216,"ARG_OF_PERICENTER":173.9265,"MEAN_ANOMALY":186.1649,"EPHEMERIS_TYPE":0,"NORAD_CAT_ID":59450,"ELEMENT_SET_NO":999,"REV_AT_EPOCH":12374,"BSTAR":0.000077491,"MEAN_MOTION_DOT":0.00000727,"MEAN_MOTION_DDOT":0},{"OBJECT_NAME":"HAWK-10A","OBJECT_ID":"2024-149CA","EPOCH":"2026-07-14T04:21:42.165792","CLASSIFICATION_TYPE":"U","MEAN_MOTION":14.96591739,"ECCENTRICITY":0.0003215,"INCLINATION":97.6892,"RA_OF_ASC_NODE":270.6295,"ARG_OF_PERICENTER":7.7542,"MEAN_ANOMALY":352.3729,"EPHEMERIS_TYPE":0,"NORAD_CAT_ID":60540,"ELEMENT_SET_NO":999,"REV_AT_EPOCH":10402,"BSTAR":0.000033204,"MEAN_MOTION_DOT":0.00000321,"MEAN_MOTION_DDOT":0},{"OBJECT_NAME":"HAWK-10B","OBJECT_ID":"2024-149CF","EPOCH":"2026-07-14T04:21:30.271968","CLASSIFICATION_TYPE":"U","MEAN_MOTION":14.96590601,"ECCENTRICITY":0.0005581,"INCLINATION":97.681,"RA_OF_ASC_NODE":269.957,"ARG_OF_PERICENTER":18.0732,"MEAN_ANOMALY":342.0686,"EPHEMERIS_TYPE":0,"NORAD_CAT_ID":60545,"ELEMENT_SET_NO":999,"REV_AT_EPOCH":10402,"BSTAR":0.000028056,"MEAN_MOTION_DOT":0.00000262,"MEAN_MOTION_DDOT":0},{"OBJECT_NAME":"HAWK-10C","OBJECT_ID":"2024-149DM","EPOCH":"2026-07-14T04:21:59.222880","CLASSIFICATION_TYPE":"U","MEAN_MOTION":14.96589316,"ECCENTRICITY":0.0002777,"INCLINATION":97.6728,"RA_OF_ASC_NODE":269.2687,"ARG_OF_PERICENTER":354.6363,"MEAN_ANOMALY":5.4828,"EPHEMERIS_TYPE":0,"NORAD_CAT_ID":60575,"ELEMENT_SET_NO":999,"REV_AT_EPOCH":10402,"BSTAR":0.000024971,"MEAN_MOTION_DOT":0.00000227,"MEAN_MOTION_DDOT":0},{"OBJECT_NAME":"HAWK-11B","OBJECT_ID":"2024-247C","EPOCH":"2026-07-14T04:35:41.596224","CLASSIFICATION_TYPE":"U","MEAN_MOTION":15.3065857,"ECCENTRICITY":0.0003089,"INCLINATION":45.0145,"RA_OF_ASC_NODE":141.6836,"ARG_OF_PERICENTER":15.2264,"MEAN_ANOMALY":344.8713,"EPHEMERIS_TYPE":0,"NORAD_CAT_ID":62379,"ELEMENT_SET_NO":999,"REV_AT_EPOCH":8714,"BSTAR":0.00015755,"MEAN_MOTION_DOT":0.00004455,"MEAN_MOTION_DDOT":0},{"OBJECT_NAME":"HAWK-11C","OBJECT_ID":"2024-247E","EPOCH":"2026-07-13T22:19:07.487328","CLASSIFICATION_TYPE":"U","MEAN_MOTION":15.30653066,"ECCENTRICITY":0.000409,"INCLINATION":45.003,"RA_OF_ASC_NODE":142.4494,"ARG_OF_PERICENTER":2.256,"MEAN_ANOMALY":357.8343,"EPHEMERIS_TYPE":0,"NORAD_CAT_ID":62381,"ELEMENT_SET_NO":999,"REV_AT_EPOCH":8710,"BSTAR":0.00015927,"MEAN_MOTION_DOT":0.00004507,"MEAN_MOTION_DDOT":0},{"OBJECT_NAME":"HAWK-11A","OBJECT_ID":"2024-247F","EPOCH":"2026-07-14T04:35:09.928896","CLASSIFICATION_TYPE":"U","MEAN_MOTION":15.30650686,"ECCENTRICITY":0.0003548,"INCLINATION":44.9924,"RA_OF_ASC_NODE":140.3472,"ARG_OF_PERICENTER":3.565,"MEAN_ANOMALY":356.5259,"EPHEMERIS_TYPE":0,"NORAD_CAT_ID":62382,"ELEMENT_SET_NO":999,"REV_AT_EPOCH":8714,"BSTAR":0.00014606,"MEAN_MOTION_DOT":0.00004107,"MEAN_MOTION_DDOT":0},{"OBJECT_NAME":"HAWK-12C","OBJECT_ID":"2025-138A","EPOCH":"2026-07-13T23:56:25.973376","CLASSIFICATION_TYPE":"U","MEAN_MOTION":15.18400479,"ECCENTRICITY":0.0015343,"INCLINATION":97.4348,"RA_OF_ASC_NODE":196.9892,"ARG_OF_PERICENTER":55.0982,"MEAN_ANOMALY":305.1691,"EPHEMERIS_TYPE":0,"NORAD_CAT_ID":64621,"ELEMENT_SET_NO":999,"REV_AT_EPOCH":5793,"BSTAR":0.00011671,"MEAN_MOTION_DOT":0.00002339,"MEAN_MOTION_DDOT":0},{"OBJECT_NAME":"HAWK-12B","OBJECT_ID":"2025-138B","EPOCH":"2026-07-13T23:56:40.975872","CLASSIFICATION_TYPE":"U","MEAN_MOTION":15.18399863,"ECCENTRICITY":0.0014239,"INCLINATION":97.447,"RA_OF_ASC_NODE":197.681,"ARG_OF_PERICENTER":51.1197,"MEAN_ANOMALY":309.1304,"EPHEMERIS_TYPE":0,"NORAD_CAT_ID":64622,"ELEMENT_SET_NO":999,"REV_AT_EPOCH":5793,"BSTAR":0.00011516,"MEAN_MOTION_DOT":0.00002306,"MEAN_MOTION_DDOT":0}]}
