HAWK-7B                 
1 56193U 23054R   26195.16543819  .00003206  00000+0  12141-3 0  9990
2 56193  97.2694  80.0906 0001442  18.5615 341.5677 15.27624450181147
HAWK-7C                 
1 56200U 23054Y   26195.16531679  .00003220  00000+0  12190-3 0  9990
2 56200  97.2673  80.8513 0000983   1.3784 358.7458 15.27627386181149
HAWK-8A                 
1 59443U 24066B   26194.96552777  .00000579  00000+0  65389-4 0  9998
2 59443  45.5951 138.1753 0002912 214.4768 145.5924 14.99284113123851
HAWK-8B                 
1 59445U 24066D   26194.89936810  .00000303  00000+0  43098-4 0  9994
2 59445  45.6177 140.4950 0003045 217.9498 142.1170 14.99279756123836
HAWK-9A                 
1 59446U 24066E   26195.18867382  .00000687  00000+0  74272-4 0  9998
2 59446  45.6093 137.6636 0002694 201.6392 158.4376 14.99213697123880
HAWK-9C                 
1 59448U 24066G   26195.18893811  .00000753  00000+0  79569-4 0  9994
2 59448  45.6065 136.7597 0002764 185.0564 175.0290 14.99212968123881
HAWK-8C                 
1 59449U 24066H   26194.89883191  .00000590  00000+0  66260-4 0  9995
2 59449  45.6072 139.5167 0002723 225.3215 134.7444 14.99287664123833
HAWK-9B                 
1 59450U 24066J   26194.25606610  .00000727  00000+0  77491-4 0  9996
2 59450  45.6132 143.4216 0002614 173.9265 186.1649 14.99213014123749
HAWK-10A                
1 60540U 24149CA  26195.18173803  .00000321  00000+0  33204-4 0  9990
2 60540  97.6892 270.6295 0003215   7.7542 352.3729 14.96591739104027
HAWK-10B                
1 60545U 24149CF  26195.18160037  .00000262  00000+0  28056-4 0  9993
2 60545  97.6810 269.9570 0005581  18.0732 342.0686 14.96590601104028
HAWK-10C                
1 60575U 24149DM  26195.18193545  .00000227  00000+0  24971-4 0  9999
2 60575  97.6728 269.2687 0002777 354.6363   5.4828 14.96589316104023
HAWK-11B                
1 62379U 24247C   26195.19145366  .00004455  00000+0  15755-3 0  9997
2 62379  45.0145 141.6836 0003089  15.2264 344.8713 15.30658570 87147
HAWK-11C                
1 62381U 24247E   26194.92994777  .00004507  00000+0  15927-3 0  9997
2 62381  45.0030 142.4494 0004090   2.2560 357.8343 15.30653066 87104
HAWK-11A                
1 62382U 24247F   26195.19108714  .00004107  00000+0  14606-3 0  9995
2 62382  44.9924 140.3472 0003548   3.5650 356.5259 15.30650686 87140
HAWK-12C                
1 64621U 25138A   26194.99752284  .00002339  00000+0  11671-3 0  9991
2 64621  97.4348 196.9892 0015343  55.0982 305.1691 15.18400479 57933
HAWK-12B                
1 64622U 25138B   26194.99769648  .00002306  00000+0  11516-3 0  9996
2 64622  97.4470 197.6810 0014239  51.1197 309.1304 15.18399863 57935
